{
  "type": "FeatureCollection",
  "features": [
    {
      "type": "Feature",
      "properties": {
        "norad_id": 67011,
        "name": "STARLINK-36167",
        "group": "last-30-days",
        "lat": 37.0649283248444,
        "lon": -59.37424800409136,
        "alt_km": 346.4017338943231,
        "timestamp": "2025-12-26T06:43:28.236181+00:00",
        "meta_object_name": "STARLINK-36167",
        "meta_object_id": "2025-293J",
        "meta_epoch": "2025-12-25T22:00:01.999584",
        "meta_mean_motion": 15.75172463,
        "meta_eccentricity": 0.00034785,
        "meta_inclination": 69.9947,
        "meta_ra_of_asc_node": 285.6805,
        "meta_arg_of_pericenter": 268.0084,
        "meta_mean_anomaly": 232.2079,
        "meta_ephemeris_type": 0,
        "meta_classification_type": "U",
        "meta_norad_cat_id": 67011,
        "meta_element_set_no": 999,
        "meta_rev_at_epoch": 222,
        "meta_bstar": -0.012715292,
        "meta_mean_motion_dot": -0.01691625,
        "meta_mean_motion_ddot": 0,
        "tle_line1": "1 67011U 25293J   25359.91668981 -.01691625  00000+0 -12715-1 0  9996",
        "tle_line2": "2 67011  69.9947 285.6805 0003478 268.0084 232.2079 15.75172463  2227"
      },
      "geometry": {
        "type": "Point",
        "coordinates": [
          -59.37424800409136,
          37.0649283248444
        ]
      }
    },
    {
      "type": "Feature",
      "properties": {
        "norad_id": 67012,
        "name": "STARLINK-36175",
        "group": "last-30-days",
        "lat": 41.175517277961355,
        "lon": -56.770230089530486,
        "alt_km": 345.8484512433406,
        "timestamp": "2025-12-26T06:43:28.236191+00:00",
        "meta_object_name": "STARLINK-36175",
        "meta_object_id": "2025-293K",
        "meta_epoch": "2025-12-25T22:00:01.999584",
        "meta_mean_motion": 15.75135362,
        "meta_eccentricity": 0.00034245,
        "meta_inclination": 69.995,
        "meta_ra_of_asc_node": 285.6754,
        "meta_arg_of_pericenter": 271.4294,
        "meta_mean_anomaly": 233.4085,
        "meta_ephemeris_type": 0,
        "meta_classification_type": "U",
        "meta_norad_cat_id": 67012,
        "meta_element_set_no": 999,
        "meta_rev_at_epoch": 222,
        "meta_bstar": -0.012697864,
        "meta_mean_motion_dot": -0.01687087,
        "meta_mean_motion_ddot": 0,
        "tle_line1": "1 67012U 25293K   25359.91668981 -.01687087  00000+0 -12698-1 0  9994",
        "tle_line2": "2 67012  69.9950 285.6754 0003424 271.4294 233.4085 15.75135362  2224"
      },
      "geometry": {
        "type": "Point",
        "coordinates": [
          -56.770230089530486,
          41.175517277961355
        ]
      }
    },
    {
      "type": "Feature",
      "properties": {
        "norad_id": 67013,
        "name": "STARLINK-35856",
        "group": "last-30-days",
        "lat": 43.31326140886774,
        "lon": -55.26653975118465,
        "alt_km": 345.80171445838096,
        "timestamp": "2025-12-26T06:43:28.236202+00:00",
        "meta_object_name": "STARLINK-35856",
        "meta_object_id": "2025-293L",
        "meta_epoch": "2025-12-25T22:00:01.999584",
        "meta_mean_motion": 15.75112655,
        "meta_eccentricity": 0.00034053,
        "meta_inclination": 69.9947,
        "meta_ra_of_asc_node": 285.6719,
        "meta_arg_of_pericenter": 265.7287,
        "meta_mean_anomaly": 241.5522,
        "meta_ephemeris_type": 0,
        "meta_classification_type": "U",
        "meta_norad_cat_id": 67013,
        "meta_element_set_no": 999,
        "meta_rev_at_epoch": 222,
        "meta_bstar": -0.012729635,
        "meta_mean_motion_dot": -0.01689317,
        "meta_mean_motion_ddot": 0,
        "tle_line1": "1 67013U 25293L   25359.91668981 -.01689317  00000+0 -12730-1 0  9990",
        "tle_line2": "2 67013  69.9947 285.6719 0003405 265.7287 241.5522 15.75112655  2225"
      },
      "geometry": {
        "type": "Point",
        "coordinates": [
          -55.26653975118465,
          43.31326140886774
        ]
      }
    },
    {
      "type": "Feature",
      "properties": {
        "norad_id": 67014,
        "name": "STARLINK-36207",
        "group": "last-30-days",
        "lat": 45.34640946322322,
        "lon": -53.71913909994215,
        "alt_km": 345.60010976087506,
        "timestamp": "2025-12-26T06:43:28.236212+00:00",
        "meta_object_name": "STARLINK-36207",
        "meta_object_id": "2025-293M",
        "meta_epoch": "2025-12-25T22:00:01.999584",
        "meta_mean_motion": 15.75095753,
        "meta_eccentricity": 0.00034782,
        "meta_inclination": 69.995,
        "meta_ra_of_asc_node": 285.6697,
        "meta_arg_of_pericenter": 267.5013,
        "meta_mean_anomaly": 242.1151,
        "meta_ephemeris_type": 0,
        "meta_classification_type": "U",
        "meta_norad_cat_id": 67014,
        "meta_element_set_no": 999,
        "meta_rev_at_epoch": 228,
        "meta_bstar": -0.012763629,
        "meta_mean_motion_dot": -0.01692267,
        "meta_mean_motion_ddot": 0,
        "tle_line1": "1 67014U 25293M   25359.91668981 -.01692267  00000+0 -12764-1 0  9996",
        "tle_line2": "2 67014  69.9950 285.6697 0003478 267.5013 242.1151 15.75095753  2282"
      },
      "geometry": {
        "type": "Point",
        "coordinates": [
          -53.71913909994215,
          45.34640946322322
        ]
      }
    },
    {
      "type": "Feature",
      "properties": {
        "norad_id": 67015,
        "name": "STARLINK-36093",
        "group": "last-30-days",
        "lat": 49.296950797949115,
        "lon": -50.30610622004361,
        "alt_km": 345.2188493664371,
        "timestamp": "2025-12-26T06:43:28.236224+00:00",
        "meta_object_name": "STARLINK-36093",
        "meta_object_id": "2025-293N",
        "meta_epoch": "2025-12-25T22:00:01.999584",
        "meta_mean_motion": 15.75060037,
        "meta_eccentricity": 0.00034309,
        "meta_inclination": 69.9946,
        "meta_ra_of_asc_node": 285.6639,
        "meta_arg_of_pericenter": 266.3674,
        "meta_mean_anomaly": 247.8689,
        "meta_ephemeris_type": 0,
        "meta_classification_type": "U",
        "meta_norad_cat_id": 67015,
        "meta_element_set_no": 999,
        "meta_rev_at_epoch": 222,
        "meta_bstar": -0.012755289,
        "meta_mean_motion_dot": -0.016889,
        "meta_mean_motion_ddot": 0,
        "tle_line1": "1 67015U 25293N   25359.91668981 -.01688900  00000+0 -12755-1 0  9996",
        "tle_line2": "2 67015  69.9946 285.6639 0003430 266.3674 247.8689 15.75060037  2221"
      },
      "geometry": {
        "type": "Point",
        "coordinates": [
          -50.30610622004361,
          49.296950797949115
        ]
      }
    },
    {
      "type": "Feature",
      "properties": {
        "norad_id": 67016,
        "name": "STARLINK-36120",
        "group": "last-30-days",
        "lat": 47.2586638032044,
        "lon": -52.14176507523279,
        "alt_km": 345.35945960843947,
        "timestamp": "2025-12-26T06:43:28.236234+00:00",
        "meta_object_name": "STARLINK-36120",
        "meta_object_id": "2025-293P",
        "meta_epoch": "2025-12-25T22:00:01.999584",
        "meta_mean_motion": 15.75082538,
        "meta_eccentricity": 0.00034383,
        "meta_inclination": 69.9948,
        "meta_ra_of_asc_node": 285.6669,
        "meta_arg_of_pericenter": 268.3649,
        "meta_mean_anomaly": 243.4672,
        "meta_ephemeris_type": 0,
        "meta_classification_type": "U",
        "meta_norad_cat_id": 67016,
        "meta_element_set_no": 999,
        "meta_rev_at_epoch": 222,
        "meta_bstar": -0.012758936,
        "meta_mean_motion_dot": -0.01690811,
        "meta_mean_motion_ddot": 0,
        "tle_line1": "1 67016U 25293P   25359.91668981 -.01690811  00000+0 -12759-1 0  9995",
        "tle_line2": "2 67016  69.9948 285.6669 0003438 268.3649 243.4672 15.75082538  2223"
      },
      "geometry": {
        "type": "Point",
        "coordinates": [
          -52.14176507523279,
          47.2586638032044
        ]
      }
    },
    {
      "type": "Feature",
      "properties": {
        "norad_id": 67017,
        "name": "STARLINK-35498",
        "group": "last-30-days",
        "lat": 51.21962939984165,
        "lon": -48.400908574676286,
        "alt_km": 345.0630953661157,
        "timestamp": "2025-12-26T06:43:28.236246+00:00",
        "meta_object_name": "STARLINK-35498",
        "meta_object_id": "2025-293Q",
        "meta_epoch": "2025-12-25T22:00:01.999584",
        "meta_mean_motion": 15.7504526,
        "meta_eccentricity": 0.00035178,
        "meta_inclination": 69.9944,
        "meta_ra_of_asc_node": 285.6607,
        "meta_arg_of_pericenter": 267.8899,
        "meta_mean_anomaly": 248.6403,
        "meta_ephemeris_type": 0,
        "meta_classification_type": "U",
        "meta_norad_cat_id": 67017,
        "meta_element_set_no": 999,
        "meta_rev_at_epoch": 242,
        "meta_bstar": -0.012785665,
        "meta_mean_motion_dot": -0.01691572,
        "meta_mean_motion_ddot": 0,
        "tle_line1": "1 67017U 25293Q   25359.91668981 -.01691572  00000+0 -12786-1 0  9991",
        "tle_line2": "2 67017  69.9944 285.6607 0003517 267.8899 248.6403 15.75045260  2423"
      },
      "geometry": {
        "type": "Point",
        "coordinates": [
          -48.400908574676286,
          51.21962939984165
        ]
      }
    }
  ]
}